APSTAR-7                
1 38107U 12013A   26174.90248936  .00000000  00000+0  00000+0 0  9995
2 38107   0.0133   0.3225 0003140 100.4520 212.6914  1.00270122 51871
YAHSAT 1B               
1 38245U 12016A   26174.95466003  .00000133  00000+0  00000+0 0  9990
2 38245   0.0925  89.4822 0002997  24.7194 189.1819  1.00271341 45675
AEHF-2 (USA 235)        
1 38254U 12019A   26174.88203466 -.00000134  00000+0  00000+0 0  9999
2 38254   6.6655  57.4388 0002153  31.3078 124.2549  1.00271274  7053
JCSAT-13                
1 38331U 12023A   26174.90979167 -.00000350  00000+0  00000+0 0  9991
2 38331   0.0142  27.3611 0002689  71.2005 265.0404  1.00271453 51603
VINASAT-2               
1 38332U 12023B   26174.69747269 -.00000323  00000+0  00000+0 0  9994
2 38332   0.0167  22.3871 0002423  75.4736 196.9333  1.00271213 46721
NIMIQ 6                 
1 38342U 12026A   26174.86721891 -.00000167  00000+0  00000+0 0  9996
2 38342   0.0123   4.0040 0002881  84.2282  44.8872  1.00271954 50480
ZHONGXING-2A            
1 38352U 12028A   26175.13532341 -.00000286  00000+0  00000+0 0  9992
2 38352   1.4733  83.8066 0004189  42.8601 292.5793  1.00271728 51365
INTELSAT 19 (IS-19)     
1 38356U 12030A   26174.84684693 -.00000050  00000+0  00000+0 0  9993
2 38356   0.0170 354.7029 0003265 105.6392 282.5344  1.00273109 50519
ECHOSTAR 17             
1 38551U 12035A   26174.43631912 -.00000070  00000+0  00000+0 0  9998
2 38551   0.0187  17.7703 0002177  74.3706 229.4324  1.00272040 51120
METEOSAT-10 (MSG-3)     
1 38552U 12035B   26174.88532801 -.00000003  00000+0  00000+0 0  9991
2 38552   4.6879  60.9946 0001692   5.2314 164.7577  1.00267854 50922
SES-5                   
1 38652U 12036A   26174.88628134  .00000040  00000+0  00000+0 0  9998
2 38652   0.0463 315.5496 0002020 135.4041 145.1305  1.00272189 44528
INTELSAT 20 (IS-20)     
1 38740U 12043A   26174.89887162  .00000000  00000+0  00000+0 0  9999
2 38740   0.0371  69.1701 0002345 126.2407 108.7265  1.00260278 50814
HYLAS 2                 
1 38741U 12043B   26174.87094559 -.00000252  00000+0  00000+0 0  9998
2 38741   2.4451  80.9958 0002707  29.9138  42.0858  1.00271356 50847
INTELSAT 21 (IS-21)     
1 38749U 12045A   26174.85455748 -.00000278  00000+0  00000+0 0  9995
2 38749   0.0170  59.9879 0001700  45.6648  56.0048  1.00271362 50593
ASTRA 2F                
1 38778U 12051A   26174.46301258  .00000155  00000+0  00000+0 0  9990
2 38778   0.0483 251.8473 0001860 277.6327 297.0112  1.00273746 41208
GSAT-10                 
1 38779U 12051B   26174.89607356 -.00000158  00000+0  00000+0 0  9990
2 38779   0.0640 260.1909 0008042 189.6202 227.8523  1.00272236 50169
INTELSAT 23 (IS-23)     
1 38867U 12057A   26174.87931556 -.00000278  00000+0  00000+0 0  9997
2 38867   0.0123 354.7809 0000030 241.7444 299.0552  1.00272378 50024
BEIDOU-2 G6             
1 38953U 12059A   26174.83064020 -.00000172  00000+0  00000+0 0  9997
2 38953   4.4392  73.4575 0009801 327.3832 254.2197  1.00271532 49979
LUCH-5B                 
1 38977U 12061A   26174.95329419 -.00000139  00000+0  00000+0 0  9998
2 38977  10.4988  49.8169 0002410 139.8297  49.3891  1.00272473 49675
YAMAL 300K              
1 38978U 12061B   26174.60715962  .00000077  00000+0  00000+0 0  9993
2 38978   0.0145 311.9953 0001033 308.9546  52.3386  1.00271021 49699
STAR ONE C3             
1 38991U 12062A   26174.87042559 -.00000243  00000+0  00000+0 0  9999
2 38991   0.0185  25.9902 0002464  75.0236  49.3726  1.00272780 49834
EUTELSAT 21B            
1 38992U 12062B   26174.93354786  .00000136  00000+0  00000+0 0  9995
2 38992   0.0646 358.9508 0002952  84.6812 186.1307  1.00270706 49893
ECHOSTAR 16             
1 39008U 12065A   26174.87311227 -.00000275  00000+0  00000+0 0  9998
2 39008   0.0120   4.6231 0002187  85.0500  75.1822  1.00271013 49718
ZHONGXING-12            
1 39017U 12067A   26174.40353427 -.00000201  00000+0  00000+0 0  9996
2 39017   0.0518  94.7404 0002988 347.5259  62.0648  1.00270792 49575
EUTELSAT 70B            
1 39020U 12069A   26174.86433619 -.00000038  00000+0  00000+0 0  9992
2 39020   0.0618 346.1278 0003610 101.7526 205.8182  1.00274977 49572
YAMAL 402               
1 39022U 12070A   26174.96744861  .00000092  00000+0  00000+0 0  9990
2 39022   1.2830  84.0877 0003988   6.8521 224.3638  1.00272934 49465
SKYNET 5D               
1 39034U 12075A   26174.95910424  .00000106  00000+0  00000+0 0  9993
2 39034   0.0693 340.2666 0003873 125.1664 204.7458  1.00273100 49223
MEXSAT 3                
1 39035U 12075B   26173.86448238 -.00000022  00000+0  00000+0 0  9990
2 39035   0.0157  49.0470 0001503  30.0014  28.3696  1.00269339  7112
TDRS 11                 
1 39070U 13004A   26174.85074696  .00000083  00000+0  00000+0 0  9991
2 39070   3.5303  31.3643 0005173  22.8856 349.5895  1.00271843 46764
AMAZONAS 3              
1 39078U 13006A   26174.25772797 -.00000278  00000+0  00000+0 0  9999
2 39078   0.0518 239.4252 0002448 246.7128 177.0721  1.00273577 44979
AZERSPACE 1             
1 39079U 13006B   26174.95355274  .00000140  00000+0  00000+0 0  9991
2 39079   0.0163 299.4734 0001759 181.9571 179.9437  1.00273572 48876
SBIRS GEO-2 (USA 241)   
1 39120U 13011A   26174.51896435 -.00000284  00000+0  00000+0 0  9995
2 39120   4.5027  52.5097 0002016  32.9586 323.2423  1.00271229 48594
EUTELSAT 117 WEST A     
1 39122U 13012A   26174.31926796 -.00000008  00000+0  00000+0 0  9994
2 39122   0.0295  52.1250 0002974  40.5312 176.9702  1.00273021 48490
ANIK G1                 
1 39127U 13014A   26174.57885120 -.00000068  00000+0  00000+0 0  9990
2 39127   0.0306 276.7216 0001807 171.3821 284.7086  1.00272283 48319
ZHONGXING-11            
1 39157U 13020A   26174.80035088 -.00000284  00000+0  00000+0 0  9996
2 39157   0.0237 303.8002 0002505 125.6973 228.4994  1.00272551 47967
EUTELSAT 7B             
1 39163U 13022A   26174.88662801  .00000054  00000+0  00000+0 0  9996
2 39163   0.0645   5.6601 0004414  34.6534 197.9037  1.00271829 48014
WGS F5 (USA 243)        
1 39168U 13024A   26174.37581113  .00000000  00000+0  00000+0 0  9994
2 39168   0.0226   2.3913 0000281  47.2530 304.6832  1.00269439 47235
SES-6                   
1 39172U 13026A   26174.87727228 -.00000255  00000+0  00000+0 0  9998
2 39172   0.0162 357.0947 0002767  99.2920  90.9760  1.00271700 47797
IRNSS-1A                
1 39199U 13034A   26169.89544831  .00000051  00000+0  00000+0 0  9992
2 39199  35.7241  63.8469 0017589 183.2529  37.3106  1.00275723 47380
MUOS-2                  
1 39206U 13036A   26174.84806028 -.00000009  00000+0  00000+0 0  9997
2 39206   5.0080  45.5367 0051463 177.3055 166.4749  1.00274309 47253
ALPHASAT                
1 39215U 13038A   26174.46231925  .00000137  00000+0  00000+0 0  9996
2 39215   2.9983   1.3006 0002048  99.6286   2.0160  1.00273431 44083
INSAT-3D                
1 39216U 13038B   26174.91091834 -.00000333  00000+0  00000+0 0  9999
2 39216   1.9441  82.4658 0001049 356.8169 290.2324  1.00273041 47143
WGS F6 (USA 244)        
1 39222U 13041A   26174.57321785  .00000094  00000+0  00000+0 0  9996
2 39222   0.0181  14.7895 0000358  47.4002 280.7010  1.00272598 46122
ES'HAIL 1               
1 39233U 13044A   26174.93689052  .00000150  00000+0  00000+0 0  9998
2 39233   0.0472   6.6465 0002132  80.8424 187.3504  1.00272380 46692
GSAT-7                  
1 39234U 13044B   26174.89991162 -.00000070  00000+0  00000+0 0  9994
2 39234   0.1002  92.4101 0002754 189.9569  27.6115  1.00271558 45323
AMOS-4                  
1 39237U 13045A   26174.86989113  .00000000  00000+0  00000+0 0  9990
2 39237   0.0274  60.1042 0002389  12.0478 218.0440  1.00273333 47020
AEHF-3 (USA 246)        
1 39256U 13050A   26174.63544826  .00000031  00000+0  00000+0 0  9994
2 39256   5.3088  67.1249 0087945 188.0206 121.1730  1.00274202 45718
ASTRA 2E                
1 39285U 13056A   26174.93911941  .00000157  00000+0  00000+0 0  9990
2 39285   0.0661 324.1200 0002557 134.9361 179.6229  1.00269524 46487
FM-6                    
1 39360U 13058A   26174.86227367 -.00000010  00000+0  00000+0 0  9999
2 39360   0.0136  87.6795 0001742  90.9521 287.5114  1.00271002 46141
RADUGA-1M 3             
1 39375U 13062A   26174.94497397  .00000156  00000+0  00000+0 0  9991
2 39375   5.9757  72.2691 0001728 277.7410 297.2601  1.00272750 46174
SES-8                   
1 39460U 13071A   26174.90407164 -.00000263  00000+0  00000+0 0  9995
2 39460   0.0383 275.0447 0002958 178.8073 238.6743  1.00271042 44496
INMARSAT 5-F1           
1 39476U 13073A   26174.11348066  .00000032  00000+0  00000+0 0  9995
2 39476   0.0173  26.9096 0000632 329.3634  18.4890  1.00272995 45638
TKSAT-1 (TUPAC KATARI)  
1 39481U 13075A   26174.86799891 -.00000188  00000+0  00000+0 0  9994
2 39481   0.0118 234.2254 0002749 209.9206  53.1645  1.00272826 45673
EXPRESS-AM5             
1 39487U 13077A   26175.17475344 -.00000272  00000+0  00000+0 0  9995
2 39487   0.0126 297.6264 0000298  88.6423  89.0053  1.00272739 46431
GSAT-14                 
1 39498U 14001A   26174.68606836 -.00000071  00000+0  00000+0 0  9999
2 39498   0.0513  96.1004 0000630 155.7149 340.9982  1.00271943 45444
THAICOM 6               
1 39500U 14002A   26174.40180093 -.00000116  00000+0  00000+0 0  9996
2 39500   0.0802 104.6869 0004666   7.4836  22.5575  1.00272558 45525
TDRS 12                 
1 39504U 14004A   26174.87709895 -.00000268  00000+0  00000+0 0  9998
2 39504   3.9840  19.2174 0003095 189.8266 337.6072  1.00265249 44340
ABS-2                   
1 39508U 14006A   26174.90008495 -.00000079  00000+0  00000+0 0  9996
2 39508   0.0183   0.1608 0003971  77.2569 233.5820  1.00271951 45345
ATHENA-FIDUS            
1 39509U 14006B   26174.53631850  .00000159  00000+0  00000+0 0  9991
2 39509   0.0444  96.1336 0001484 354.7338  51.7017  1.00272314 45154
